SL-3 R/B                
1 13403U 82079B   26038.80372712  .00007359  00000+0  29715-3 0  9996
2 13403  81.1442 228.3559 0024107 267.6198  92.2275 15.24362780373143
SL-14 R/B               
1 13553U 82092B   26038.83640525  .00000774  00000+0  84099-4 0  9991
2 13553  82.5702 169.3133 0021369  43.5235  70.5753 14.86633146324493
SL-3 R/B                
1 13819U 83010B   26038.46602724  .00018752  00000+0  39054-3 0  9990
2 13819  81.1024  39.2723 0017883 147.2006 213.0353 15.45288971353270
SL-3 R/B                
1 14208U 83075B   26038.75917720  .00015389  00000+0  41534-3 0  9990
2 14208  97.6136  42.2263 0021226 342.3647  17.6858 15.37644260325553
COSMOS 1536             
1 14699U 84013A   26038.77195251  .00007938  00000+0  33105-3 0  9992
2 14699  82.5469 137.5737 0014988  32.8756 327.3410 15.23427808268061
SL-14 R/B               
1 14820U 84027B   26038.72768808  .00000569  00000+0  62193-4 0  9995
2 14820  82.5400 273.1198 0019489  74.0635 286.2727 14.85947233243181
SL-8 R/B                
1 15483U 85006B   26038.87829259  .00000326  00000+0  11667-3 0  9993
2 15483  74.0473 316.0034 0019531 239.5524 184.3973 14.37768444149742
SL-12 R/B(2)            
1 15772U 85042D   26038.73594272  .00000182  00000+0  10319-3 0  9996
2 15772  71.1087 151.0113 0034987 176.0840 291.8229 14.21973808110139
SL-14 R/B               
1 15945U 85069B   26038.51958096  .00000674  00000+0  73480-4 0  9996
2 15945  82.5240  53.3092 0017322 294.5509  65.3902 14.86397603168353
SL-16 R/B               
1 16182U 85097B   26038.84310339 -.00000038  00000+0  47611-5 0  9992
2 16182  71.0016 203.3850 0009589 294.5999 168.1593 14.16596435 83002
SL-14 R/B               
1 16496U 86006B   26038.77377236  .00000948  00000+0  98046-4 0  9998
2 16496  82.5269 287.8951 0077011  13.0335 347.2847 14.86774312144761
COSMOS 1743             
1 16719U 86034A   26038.63673131  .00037421  00000+0  52843-3 0  9995
2 16719  82.5329 105.3161 0005128  55.3863 304.7874 15.56379282175574
