CCSDS_OMM_VERS = 2.0
CREATION_DATE  = 
ORIGINATOR     = 

OBJECT_NAME    = SL-3 R/B
OBJECT_ID      = 1982-079B
CENTER_NAME    = EARTH
REF_FRAME      = TEME
TIME_SYSTEM    = UTC
MEAN_ELEMENT_THEORY = SGP/SGP4

EPOCH          = 2026-02-07T19:17:22.023168
MEAN_MOTION    = 15.24362780
ECCENTRICITY   = .0024107
INCLINATION    = 81.1442
RA_OF_ASC_NODE = 228.3559
ARG_OF_PERICENTER = 267.6198
MEAN_ANOMALY   = 92.2275

EPHEMERIS_TYPE = 0
CLASSIFICATION_TYPE = U
NORAD_CAT_ID   = 13403
ELEMENT_SET_NO = 999
REV_AT_EPOCH   = 37314
BSTAR          = .29715E-3
MEAN_MOTION_DOT = .7359E-4
MEAN_MOTION_DDOT = 0

CCSDS_OMM_VERS = 2.0
CREATION_DATE  = 
ORIGINATOR     = 

OBJECT_NAME    = SL-14 R/B
OBJECT_ID      = 1982-092B
CENTER_NAME    = EARTH
REF_FRAME      = TEME
TIME_SYSTEM    = UTC
MEAN_ELEMENT_THEORY = SGP/SGP4

EPOCH          = 2026-02-07T20:04:25.413600
MEAN_MOTION    = 14.86633146
ECCENTRICITY   = .0021369
INCLINATION    = 82.5702
RA_OF_ASC_NODE = 169.3133
ARG_OF_PERICENTER = 43.5235
MEAN_ANOMALY   = 70.5753

EPHEMERIS_TYPE = 0
CLASSIFICATION_TYPE = U
NORAD_CAT_ID   = 13553
ELEMENT_SET_NO = 999
REV_AT_EPOCH   = 32449
BSTAR          = .84099E-4
MEAN_MOTION_DOT = .774E-5
MEAN_MOTION_DDOT = 0

CCSDS_OMM_VERS = 2.0
CREATION_DATE  = 
ORIGINATOR     = 

OBJECT_NAME    = SL-3 R/B
OBJECT_ID      = 1983-010B
CENTER_NAME    = EARTH
REF_FRAME      = TEME
TIME_SYSTEM    = UTC
MEAN_ELEMENT_THEORY = SGP/SGP4

EPOCH          = 2026-02-07T11:11:04.753536
MEAN_MOTION    = 15.45288971
ECCENTRICITY   = .00178836
INCLINATION    = 81.1024
RA_OF_ASC_NODE = 39.2723
ARG_OF_PERICENTER = 147.2006
MEAN_ANOMALY   = 213.0353

EPHEMERIS_TYPE = 0
CLASSIFICATION_TYPE = U
NORAD_CAT_ID   = 13819
ELEMENT_SET_NO = 999
REV_AT_EPOCH   = 35327
BSTAR          = .39053879E-3
MEAN_MOTION_DOT = .18752E-3
MEAN_MOTION_DDOT = 0

CCSDS_OMM_VERS = 2.0
CREATION_DATE  = 
ORIGINATOR     = 

OBJECT_NAME    = SL-3 R/B
OBJECT_ID      = 1983-075B
CENTER_NAME    = EARTH
REF_FRAME      = TEME
TIME_SYSTEM    = UTC
MEAN_ELEMENT_THEORY = SGP/SGP4

EPOCH          = 2026-02-07T18:13:12.910080
MEAN_MOTION    = 15.37644260
ECCENTRICITY   = .0021226
INCLINATION    = 97.6136
RA_OF_ASC_NODE = 42.2263
ARG_OF_PERICENTER = 342.3647
MEAN_ANOMALY   = 17.6858

EPHEMERIS_TYPE = 0
CLASSIFICATION_TYPE = U
NORAD_CAT_ID   = 14208
ELEMENT_SET_NO = 999
REV_AT_EPOCH   = 32555
BSTAR          = .41534E-3
MEAN_MOTION_DOT = .15389E-3
MEAN_MOTION_DDOT = 0

CCSDS_OMM_VERS = 2.0
CREATION_DATE  = 
ORIGINATOR     = 

OBJECT_NAME    = COSMOS 1536
OBJECT_ID      = 1984-013A
CENTER_NAME    = EARTH
REF_FRAME      = TEME
TIME_SYSTEM    = UTC
MEAN_ELEMENT_THEORY = SGP/SGP4

EPOCH          = 2026-02-07T18:31:36.696864
MEAN_MOTION    = 15.23427808
ECCENTRICITY   = .0014988
INCLINATION    = 82.5469
RA_OF_ASC_NODE = 137.5737
ARG_OF_PERICENTER = 32.8756
MEAN_ANOMALY   = 327.3410

EPHEMERIS_TYPE = 0
CLASSIFICATION_TYPE = U
NORAD_CAT_ID   = 14699
ELEMENT_SET_NO = 999
REV_AT_EPOCH   = 26806
BSTAR          = .33105E-3
MEAN_MOTION_DOT = .7938E-4
MEAN_MOTION_DDOT = 0

CCSDS_OMM_VERS = 2.0
CREATION_DATE  = 
ORIGINATOR     = 

OBJECT_NAME    = SL-14 R/B
OBJECT_ID      = 1984-027B
CENTER_NAME    = EARTH
REF_FRAME      = TEME
TIME_SYSTEM    = UTC
MEAN_ELEMENT_THEORY = SGP/SGP4

EPOCH          = 2026-02-07T17:27:52.250112
MEAN_MOTION    = 14.85947233
ECCENTRICITY   = .0019489
INCLINATION    = 82.5400
RA_OF_ASC_NODE = 273.1198
ARG_OF_PERICENTER = 74.0635
MEAN_ANOMALY   = 286.2727

EPHEMERIS_TYPE = 0
CLASSIFICATION_TYPE = U
NORAD_CAT_ID   = 14820
ELEMENT_SET_NO = 999
REV_AT_EPOCH   = 24318
BSTAR          = .62193E-4
MEAN_MOTION_DOT = .569E-5
MEAN_MOTION_DDOT = 0

CCSDS_OMM_VERS = 2.0
CREATION_DATE  = 
ORIGINATOR     = 

OBJECT_NAME    = SL-8 R/B
OBJECT_ID      = 1985-006B
CENTER_NAME    = EARTH
REF_FRAME      = TEME
TIME_SYSTEM    = UTC
MEAN_ELEMENT_THEORY = SGP/SGP4

EPOCH          = 2026-02-07T21:04:44.479776
MEAN_MOTION    = 14.37768444
ECCENTRICITY   = .0019531
INCLINATION    = 74.0473
RA_OF_ASC_NODE = 316.0034
ARG_OF_PERICENTER = 239.5524
MEAN_ANOMALY   = 184.3973

EPHEMERIS_TYPE = 0
CLASSIFICATION_TYPE = U
NORAD_CAT_ID   = 15483
ELEMENT_SET_NO = 999
REV_AT_EPOCH   = 14974
BSTAR          = .11667E-3
MEAN_MOTION_DOT = .326E-5
MEAN_MOTION_DDOT = 0

CCSDS_OMM_VERS = 2.0
CREATION_DATE  = 
ORIGINATOR     = 

OBJECT_NAME    = SL-12 R/B(2)
OBJECT_ID      = 1985-042D
CENTER_NAME    = EARTH
REF_FRAME      = TEME
TIME_SYSTEM    = UTC
MEAN_ELEMENT_THEORY = SGP/SGP4

EPOCH          = 2026-02-07T17:39:45.451008
MEAN_MOTION    = 14.21973808
ECCENTRICITY   = .0034987
INCLINATION    = 71.1087
RA_OF_ASC_NODE = 151.0113
ARG_OF_PERICENTER = 176.0840
MEAN_ANOMALY   = 291.8229

EPHEMERIS_TYPE = 0
CLASSIFICATION_TYPE = U
NORAD_CAT_ID   = 15772
ELEMENT_SET_NO = 999
REV_AT_EPOCH   = 11013
BSTAR          = .10319E-3
MEAN_MOTION_DOT = .182E-5
MEAN_MOTION_DDOT = 0

CCSDS_OMM_VERS = 2.0
CREATION_DATE  = 
ORIGINATOR     = 

OBJECT_NAME    = SL-14 R/B
OBJECT_ID      = 1985-069B
CENTER_NAME    = EARTH
REF_FRAME      = TEME
TIME_SYSTEM    = UTC
MEAN_ELEMENT_THEORY = SGP/SGP4

EPOCH          = 2026-02-07T12:28:11.794944
MEAN_MOTION    = 14.86397603
ECCENTRICITY   = .00173221
INCLINATION    = 82.5240
RA_OF_ASC_NODE = 53.3092
ARG_OF_PERICENTER = 294.5509
MEAN_ANOMALY   = 65.3902

EPHEMERIS_TYPE = 0
CLASSIFICATION_TYPE = U
NORAD_CAT_ID   = 15945
ELEMENT_SET_NO = 999
REV_AT_EPOCH   = 16835
BSTAR          = .73480359E-4
MEAN_MOTION_DOT = .674E-5
MEAN_MOTION_DDOT = 0

CCSDS_OMM_VERS = 2.0
CREATION_DATE  = 
ORIGINATOR     = 

OBJECT_NAME    = SL-16 R/B
OBJECT_ID      = 1985-097B
CENTER_NAME    = EARTH
REF_FRAME      = TEME
TIME_SYSTEM    = UTC
MEAN_ELEMENT_THEORY = SGP/SGP4

EPOCH          = 2026-02-07T20:14:04.132896
MEAN_MOTION    = 14.16596435
ECCENTRICITY   = .0009589
INCLINATION    = 71.0016
RA_OF_ASC_NODE = 203.3850
ARG_OF_PERICENTER = 294.5999
MEAN_ANOMALY   = 168.1593

EPHEMERIS_TYPE = 0
CLASSIFICATION_TYPE = U
NORAD_CAT_ID   = 16182
ELEMENT_SET_NO = 999
REV_AT_EPOCH   = 8300
BSTAR          = .47611E-5
MEAN_MOTION_DOT = -.38E-6
MEAN_MOTION_DDOT = 0

CCSDS_OMM_VERS = 2.0
CREATION_DATE  = 
ORIGINATOR     = 

OBJECT_NAME    = SL-14 R/B
OBJECT_ID      = 1986-006B
CENTER_NAME    = EARTH
REF_FRAME      = TEME
TIME_SYSTEM    = UTC
MEAN_ELEMENT_THEORY = SGP/SGP4

EPOCH          = 2026-02-07T18:34:13.931904
MEAN_MOTION    = 14.86774312
ECCENTRICITY   = .0077011
INCLINATION    = 82.5269
RA_OF_ASC_NODE = 287.8951
ARG_OF_PERICENTER = 13.0335
MEAN_ANOMALY   = 347.2847

EPHEMERIS_TYPE = 0
CLASSIFICATION_TYPE = U
NORAD_CAT_ID   = 16496
ELEMENT_SET_NO = 999
REV_AT_EPOCH   = 14476
BSTAR          = .98046E-4
MEAN_MOTION_DOT = .948E-5
MEAN_MOTION_DDOT = 0

CCSDS_OMM_VERS = 2.0
CREATION_DATE  = 
ORIGINATOR     = 

OBJECT_NAME    = COSMOS 1743
OBJECT_ID      = 1986-034A
CENTER_NAME    = EARTH
REF_FRAME      = TEME
TIME_SYSTEM    = UTC
MEAN_ELEMENT_THEORY = SGP/SGP4

EPOCH          = 2026-02-07T15:16:53.585184
MEAN_MOTION    = 15.56379282
ECCENTRICITY   = .0005128
INCLINATION    = 82.5329
RA_OF_ASC_NODE = 105.3161
ARG_OF_PERICENTER = 55.3863
MEAN_ANOMALY   = 304.7874

EPHEMERIS_TYPE = 0
CLASSIFICATION_TYPE = U
NORAD_CAT_ID   = 16719
ELEMENT_SET_NO = 999
REV_AT_EPOCH   = 17557
BSTAR          = .52843E-3
MEAN_MOTION_DOT = .37421E-3
MEAN_MOTION_DDOT = 0

